HAIYANG-1B              
1 31113U 07010A   26170.59201378  .00000065  00000+0  40663-4 0  9991
2 31113  98.3495 152.3440 0013180 188.9814 171.1136 14.31027414   984
GOSAT (IBUKI)           
1 33492U 09002A   26170.72927778  .00000824  00000+0  15380-3 0  9990
2 33492  98.0889 281.7781 0001480  80.5737 279.5634 14.67540024931835
HAIYANG-2A              
1 37781U 11043A   26170.80479983 -.00000200  00000+0 -16614-3 0  9993
2 37781  99.3393 173.4232 0005807  86.3962 273.7851 13.74331458747011
GOKTURK 2               
1 39030U 12073A   26170.79331192  .00000720  00000+0  11255-3 0  9994
2 39030  97.6815   8.0936 0001503  56.8159 303.3195 14.75546297724896
GPM-CORE                
1 39574U 14009C   26170.79930197  .00009653  00000+0  21095-3 0  9995
2 39574  64.9723 299.3784 0011729 252.5245 107.4614 15.44619429698212
GOKTURK 1A              
1 41875U 16073A   26170.84508824  .00000277  00000+0  63408-4 0  9997
2 41875  98.1245  65.4780 0001423  77.2506 282.8854 14.62776322509217
GOES 17                 
1 43226U 18022A   26170.80398575 -.00000188  00000+0  00000+0 0  9997
2 43226   0.9448  85.6637 0000553  26.9886 355.2755  1.00269497 30453
GOES 18                 
1 51850U 22021A   26170.79445240  .00000091  00000+0  00000+0 0  9995
2 51850   0.0365 172.6511 0000394 326.3071 278.0456  1.00271801  6611
GOES 19                 
1 60133U 24119A   26170.37908251 -.00000258  00000+0  00000+0 0  9995
2 60133   0.0249 218.9773 0002306 265.9040 204.0106  1.00309682  6989
GOSAT-GW (IBUKI GW)     
1 64694U 25141A   26170.84922681  .00000025  00000+0  12909-4 0  9999
2 64694  98.0572 108.1229 0001441  82.9399 277.1969 14.67554638 52237
